OBJECT_NAME,OBJECT_ID,EPOCH,MEAN_MOTION,ECCENTRICITY,INCLINATION,RA_OF_ASC_NODE,ARG_OF_PERICENTER,MEAN_ANOMALY,EPHEMERIS_TYPE,CLASSIFICATION_TYPE,NORAD_CAT_ID,ELEMENT_SET_NO,REV_AT_EPOCH,BSTAR,MEAN_MOTION_DOT,MEAN_MOTION_DDOT
2026-132D,2026-132D,2026-06-13T09:58:23.387808,15.00977591,.00110344,97.6871,228.1350,315.3023,44.7311,0,U,69505,999,20,.12291978E-3,.1509E-4,0
2026-132E,2026-132E,2026-06-13T22:59:45.049920,14.93464297,.00028233,97.6694,228.6931,327.8572,32.2476,0,U,69506,999,29,.19336817E-3,.1978E-4,0
2026-132F,2026-132F,2026-06-13T09:58:10.881408,15.01040982,.00109152,97.6869,228.1362,319.8335,40.2082,0,U,69507,999,20,.25250362E-3,.317E-4,0
OBJECT_NAME,OBJECT_ID,EPOCH,MEAN_MOTION,ECCENTRICITY,INCLINATION,RA_OF_ASC_NODE,ARG_OF_PERICENTER,MEAN_ANOMALY,EPHEMERIS_TYPE,CLASSIFICATION_TYPE,NORAD_CAT_ID,ELEMENT_SET_NO,REV_AT_EPOCH,BSTAR,MEAN_MOTION_DOT,MEAN_MOTION_DDOT
METHANESAT,2024-043D,2026-06-14T07:43:30.885600,14.98118695,.00111607,97.8459,296.3505,29.6542,330.5310,0,U,59101,999,12422,.22957518E-3,.2661E-4,0
